[{"OBJECT_NAME":"STARLINK-36212","OBJECT_ID":"2025-304AA","EPOCH":"2026-03-09T16:41:27.859776","MEAN_MOTION":15.00195424,"ECCENTRICITY":0.00049779,"INCLINATION":70.0014,"RA_OF_ASC_NODE":174.5126,"ARG_OF_PERICENTER":278.3638,"MEAN_ANOMALY":81.6957,"EPHEMERIS_TYPE":0,"CLASSIFICATION_TYPE":"U","NORAD_CAT_ID":67216,"ELEMENT_SET_NO":999,"REV_AT_EPOCH":1388,"BSTAR":0.057619822,"MEAN_MOTION_DOT":0.00772353,"MEAN_MOTION_DDOT":0},{"OBJECT_NAME":"SL-6 R\/B(2)","OBJECT_ID":"1990-055D","EPOCH":"2026-03-09T21:41:59.551872","MEAN_MOTION":15.03595553,"ECCENTRICITY":0.00247741,"INCLINATION":62.7825,"RA_OF_ASC_NODE":253.121,"ARG_OF_PERICENTER":347.1508,"MEAN_ANOMALY":12.8957,"EPHEMERIS_TYPE":0,"CLASSIFICATION_TYPE":"U","NORAD_CAT_ID":20666,"ELEMENT_SET_NO":999,"REV_AT_EPOCH":93822,"BSTAR":0.00020900577,"MEAN_MOTION_DOT":2.688e-5,"MEAN_MOTION_DDOT":0}]
